{"type": "FeatureCollection", "features": [{"type": "Feature", "properties": {"norad_id": 2807, "name": "OPS 7218 (TRANSIT 16)", "group": "nnss", "lat": 79.05131931826803, "lon": -4.261515812349411, "alt_km": 1049.3969083785096, "timestamp": "2025-12-11T18:59:46.341679+00:00", "meta": {"OBJECT_NAME": "OPS 7218 (TRANSIT 16)", "OBJECT_ID": "1967-048A", "EPOCH": "2025-12-11T01:05:34.708704", "MEAN_MOTION": 13.50721723, "ECCENTRICITY": 0.00218869, "INCLINATION": 89.6732, "RA_OF_ASC_NODE": 354.0725, "ARG_OF_PERICENTER": 118.5998, "MEAN_ANOMALY": 295.4439, "EPHEMERIS_TYPE": 0, "CLASSIFICATION_TYPE": "U", "NORAD_CAT_ID": 2807, "ELEMENT_SET_NO": 999, "REV_AT_EPOCH": 88253, "BSTAR": 0.0001946537, "MEAN_MOTION_DOT": 1.36e-06, "MEAN_MOTION_DDOT": 0}, "tle": {"line1": "1 02807U 67048A   25345.04554061  .00000136  00000+0  19465-3 0  9993", "line2": "2 02807  89.6732 354.0725 0021886 118.5998 295.4439 13.50721723882539"}}, "geometry": {"type": "Point", "coordinates": [-4.261515812349411, 79.05131931826803]}}, {"type": "Feature", "properties": {"norad_id": 2965, "name": "OPS 4947 (TRANSIT 17)", "group": "nnss", "lat": 46.03079190493311, "lon": -156.27016226849392, "alt_km": 1063.4893724283556, "timestamp": "2025-12-11T18:59:46.341701+00:00", "meta": {"OBJECT_NAME": "OPS 4947 (TRANSIT 17)", "OBJECT_ID": "1967-092A", "EPOCH": "2025-12-11T04:28:28.164576", "MEAN_MOTION": 13.53452884, "ECCENTRICITY": 0.00460941, "INCLINATION": 89.2497, "RA_OF_ASC_NODE": 24.5542, "ARG_OF_PERICENTER": 239.1652, "MEAN_ANOMALY": 188.8277, "EPHEMERIS_TYPE": 0, "CLASSIFICATION_TYPE": "U", "NORAD_CAT_ID": 2965, "ELEMENT_SET_NO": 999, "REV_AT_EPOCH": 87076, "BSTAR": 0.00023164588, "MEAN_MOTION_DOT": 1.68e-06, "MEAN_MOTION_DDOT": 0}, "tle": {"line1": "1 02965U 67092A   25345.18643709  .00000168  00000+0  23165-3 0  9997", "line2": "2 02965  89.2497  24.5542 0046094 239.1652 188.8277 13.53452884870768"}}, "geometry": {"type": "Point", "coordinates": [-156.27016226849392, 46.03079190493311]}}, {"type": "Feature", "properties": {"norad_id": 3133, "name": "OPS 7034 (TRANSIT 18)", "group": "nnss", "lat": -69.27613300726755, "lon": -86.29043194779857, "alt_km": 1100.0852042912074, "timestamp": "2025-12-11T18:59:46.341716+00:00", "meta": {"OBJECT_NAME": "OPS 7034 (TRANSIT 18)", "OBJECT_ID": "1968-012A", "EPOCH": "2025-12-11T07:29:54.771936", "MEAN_MOTION": 13.51565175, "ECCENTRICITY": 0.00737089, "INCLINATION": 90.0278, "RA_OF_ASC_NODE": 273.6347, "ARG_OF_PERICENTER": 173.263, "MEAN_ANOMALY": 307.1772, "EPHEMERIS_TYPE": 0, "CLASSIFICATION_TYPE": "U", "NORAD_CAT_ID": 3133, "ELEMENT_SET_NO": 999, "REV_AT_EPOCH": 56899, "BSTAR": 0.00025843593, "MEAN_MOTION_DOT": 1.81e-06, "MEAN_MOTION_DDOT": 0}, "tle": {"line1": "1 03133U 68012A   25345.31243949  .00000181  00000+0  25844-3 0  9996", "line2": "2 03133  90.0278 273.6347 0073708 173.2630 307.1772 13.51565175568990"}}, "geometry": {"type": "Point", "coordinates": [-86.29043194779857, -69.27613300726755]}}, {"type": "Feature", "properties": {"norad_id": 4507, "name": "NNSS 19 (TRANSIT 19)", "group": "nnss", "lat": -81.25978620012819, "lon": 54.497322296769354, "alt_km": 970.0110962783147, "timestamp": "2025-12-11T18:59:46.341729+00:00", "meta": {"OBJECT_NAME": "NNSS 19 (TRANSIT 19)", "OBJECT_ID": "1970-067A", "EPOCH": "2025-12-11T05:15:12.507264", "MEAN_MOTION": 13.51314509, "ECCENTRICITY": 0.0170634, "INCLINATION": 90.0055, "RA_OF_ASC_NODE": 234.5328, "ARG_OF_PERICENTER": 297.8266, "MEAN_ANOMALY": 60.5684, "EPHEMERIS_TYPE": 0, "CLASSIFICATION_TYPE": "U", "NORAD_CAT_ID": 4507, "ELEMENT_SET_NO": 999, "REV_AT_EPOCH": 72201, "BSTAR": 0.00023118437, "MEAN_MOTION_DOT": 1.72e-06, "MEAN_MOTION_DDOT": 0}, "tle": {"line1": "1 04507U 70067A   25345.21889476  .00000172  00000+0  23118-3 0  9997", "line2": "2 04507  90.0055 234.5328 0170634 297.8266  60.5684 13.51314509722018"}}, "geometry": {"type": "Point", "coordinates": [54.497322296769354, -81.25978620012819]}}, {"type": "Feature", "properties": {"norad_id": 6909, "name": "NNSS 20 (TRANSIT 20)", "group": "nnss", "lat": -86.26546484127296, "lon": 77.27327235554012, "alt_km": 1116.9139275339403, "timestamp": "2025-12-11T18:59:46.341740+00:00", "meta": {"OBJECT_NAME": "NNSS 20 (TRANSIT 20)", "OBJECT_ID": "1973-081A", "EPOCH": "2025-12-11T07:12:11.412576", "MEAN_MOTION": 13.71433253, "ECCENTRICITY": 0.01566046, "INCLINATION": 89.8562, "RA_OF_ASC_NODE": 255.0757, "ARG_OF_PERICENTER": 82.5797, "MEAN_ANOMALY": 279.313, "EPHEMERIS_TYPE": 0, "CLASSIFICATION_TYPE": "U", "NORAD_CAT_ID": 6909, "ELEMENT_SET_NO": 999, "REV_AT_EPOCH": 80341, "BSTAR": 0.00034370719, "MEAN_MOTION_DOT": 3.49e-06, "MEAN_MOTION_DDOT": 0}, "tle": {"line1": "1 06909U 73081A   25345.30013209  .00000349  00000+0  34371-3 0  9996", "line2": "2 06909  89.8562 255.0757 0156604  82.5797 279.3130 13.71433253803418"}}, "geometry": {"type": "Point", "coordinates": [77.27327235554012, -86.26546484127296]}}, {"type": "Feature", "properties": {"norad_id": 10457, "name": "TRANSAT", "group": "nnss", "lat": -84.29804877044872, "lon": 75.10293838432486, "alt_km": 1081.4292692616527, "timestamp": "2025-12-11T18:59:46.341751+00:00", "meta": {"OBJECT_NAME": "TRANSAT", "OBJECT_ID": "1977-106A", "EPOCH": "2025-12-11T07:14:56.178240", "MEAN_MOTION": 13.48943387, "ECCENTRICITY": 0.00252588, "INCLINATION": 89.6482, "RA_OF_ASC_NODE": 78.648, "ARG_OF_PERICENTER": 193.6738, "MEAN_ANOMALY": 226.1944, "EPHEMERIS_TYPE": 0, "CLASSIFICATION_TYPE": "U", "NORAD_CAT_ID": 10457, "ELEMENT_SET_NO": 999, "REV_AT_EPOCH": 36724, "BSTAR": 0.0002017217, "MEAN_MOTION_DOT": 1.37e-06, "MEAN_MOTION_DDOT": 0}, "tle": {"line1": "1 10457U 77106A   25345.30203910  .00000137  00000+0  20172-3 0  9990", "line2": "2 10457  89.6482  78.6480 0025258 193.6738 226.1944 13.48943387367248"}}, "geometry": {"type": "Point", "coordinates": [75.10293838432486, -84.29804877044872]}}, {"type": "Feature", "properties": {"norad_id": 12458, "name": "NOVA 1", "group": "nnss", "lat": -84.5174897097808, "lon": -87.06259719488894, "alt_km": 1190.8488484644977, "timestamp": "2025-12-11T18:59:46.341762+00:00", "meta": {"OBJECT_NAME": "NOVA 1", "OBJECT_ID": "1981-044A", "EPOCH": "2025-12-11T06:51:27.610272", "MEAN_MOTION": 13.23278364, "ECCENTRICITY": 0.00158855, "INCLINATION": 89.8524, "RA_OF_ASC_NODE": 91.4057, "ARG_OF_PERICENTER": 107.5684, "MEAN_ANOMALY": 268.8677, "EPHEMERIS_TYPE": 0, "CLASSIFICATION_TYPE": "U", "NORAD_CAT_ID": 12458, "ELEMENT_SET_NO": 999, "REV_AT_EPOCH": 15167, "BSTAR": 0.00017715712, "MEAN_MOTION_DOT": 8.4e-07, "MEAN_MOTION_DDOT": 0}, "tle": {"line1": "1 12458U 81044A   25345.28573623  .00000084  00000+0  17716-3 0  9998", "line2": "2 12458  89.8524  91.4057 0015885 107.5684 268.8677 13.23278364151675"}}, "geometry": {"type": "Point", "coordinates": [-87.06259719488894, -84.5174897097808]}}, {"type": "Feature", "properties": {"norad_id": 15362, "name": "NOVA 3", "group": "nnss", "lat": 41.900117477598265, "lon": -99.36647825778795, "alt_km": 1191.863229989116, "timestamp": "2025-12-11T18:59:46.341795+00:00", "meta": {"OBJECT_NAME": "NOVA 3", "OBJECT_ID": "1984-110A", "EPOCH": "2025-12-11T07:42:45.708768", "MEAN_MOTION": 13.23044425, "ECCENTRICITY": 0.00305919, "INCLINATION": 90.1224, "RA_OF_ASC_NODE": 80.5181, "ARG_OF_PERICENTER": 335.9651, "MEAN_ANOMALY": 83.964, "EPHEMERIS_TYPE": 0, "CLASSIFICATION_TYPE": "U", "NORAD_CAT_ID": 15362, "ELEMENT_SET_NO": 999, "REV_AT_EPOCH": 98680, "BSTAR": 0.00025953457, "MEAN_MOTION_DOT": 1.18e-06, "MEAN_MOTION_DDOT": 0}, "tle": {"line1": "1 15362U 84110A   25345.32136237  .00000118  00000+0  25953-3 0  9993", "line2": "2 15362  90.1224  80.5181 0030591 335.9651  83.9640 13.23044425986809"}}, "geometry": {"type": "Point", "coordinates": [-99.36647825778795, 41.900117477598265]}}, {"type": "Feature", "properties": {"norad_id": 15935, "name": "OSCAR 30", "group": "nnss", "lat": 3.6814514982287707, "lon": -80.15798487511181, "alt_km": 1123.471948967458, "timestamp": "2025-12-11T18:59:46.341807+00:00", "meta": {"OBJECT_NAME": "OSCAR 30", "OBJECT_ID": "1985-066A", "EPOCH": "2025-12-11T07:36:51.608736", "MEAN_MOTION": 13.36078138, "ECCENTRICITY": 0.01694332, "INCLINATION": 90.1649, "RA_OF_ASC_NODE": 99.8237, "ARG_OF_PERICENTER": 87.8767, "MEAN_ANOMALY": 326.6656, "EPHEMERIS_TYPE": 0, "CLASSIFICATION_TYPE": "U", "NORAD_CAT_ID": 15935, "ELEMENT_SET_NO": 999, "REV_AT_EPOCH": 96434, "BSTAR": 0.00026006886, "MEAN_MOTION_DOT": 1.55e-06, "MEAN_MOTION_DDOT": 0}, "tle": {"line1": "1 15935U 85066A   25345.31726399  .00000155  00000+0  26007-3 0  9995", "line2": "2 15935  90.1649  99.8237 0169433  87.8767 326.6656 13.36078138964341"}}, "geometry": {"type": "Point", "coordinates": [-80.15798487511181, 3.6814514982287707]}}, {"type": "Feature", "properties": {"norad_id": 15936, "name": "OSCAR 24", "group": "nnss", "lat": -70.87537299423968, "lon": -88.22759872820734, "alt_km": 1250.0507150849617, "timestamp": "2025-12-11T18:59:46.341819+00:00", "meta": {"OBJECT_NAME": "OSCAR 24", "OBJECT_ID": "1985-066B", "EPOCH": "2025-12-11T07:14:08.856096", "MEAN_MOTION": 13.3593556, "ECCENTRICITY": 0.01705087, "INCLINATION": 90.1789, "RA_OF_ASC_NODE": 92.28, "ARG_OF_PERICENTER": 94.3565, "MEAN_ANOMALY": 320.4437, "EPHEMERIS_TYPE": 0, "CLASSIFICATION_TYPE": "U", "NORAD_CAT_ID": 15936, "ELEMENT_SET_NO": 999, "REV_AT_EPOCH": 96624, "BSTAR": 0.00021093226, "MEAN_MOTION_DOT": 1.27e-06, "MEAN_MOTION_DDOT": 0}, "tle": {"line1": "1 15936U 85066B   25345.30149139  .00000127  00000+0  21093-3 0  9995", "line2": "2 15936  90.1789  92.2800 0170508  94.3565 320.4437 13.35935560966244"}}, "geometry": {"type": "Point", "coordinates": [-88.22759872820734, -70.87537299423968]}}]}